IRIDIUM 39              
1 25042U 97069D   25179.59058727  .00000323  00000+0  79278-4 0  9995
2 25042  86.3923 206.2443 0015472 268.8073  91.1358 14.49228700450610
IRIDIUM 38              
1 25043U 97069E   25179.57990032  .00000243  00000+0  73494-4 0  9993
2 25043  86.3958 228.3633 0004113  78.2550 281.9109 14.38124095447594
IRIDIUM 42              
1 25077U 97077A   25179.60009294  .00000277  00000+0  87891-4 0  9997
2 25077  86.3961 234.5382 0003062  89.2241 270.9307 14.36359304442837
IRIDIUM 44              
1 25078U 97077B   25179.59321653  .00000216  00000+0  62119-4 0  9991
2 25078  86.3964 216.4389 0002722  48.3816 311.7616 14.40248326445345
IRIDIUM 45              
1 25104U 97082A   25179.62342981  .00008513  00000+0  30387-3 0  9997
2 25104  86.3571  42.3381 0113476 289.2373  69.6622 15.22680481453786
IRIDIUM 24              
1 25105U 97082B   25179.41290145  .00000332  00000+0  94724-4 0  9996
2 25105  86.3896  75.5399 0013098  47.9505 312.2807 14.42107187444835
IRIDIUM 51              
1 25262U 98018A   25179.59716030  .00020211  00000+0  44075-3 0  9996
2 25262  86.3817  50.1810 0084350 204.6125 155.1095 15.40291741448788
IRIDIUM 57              
1 25273U 98019B   25179.60064316  .00000226  00000+0  71132-4 0  9993
2 25273  86.3979 140.4814 0002342  85.6938 274.4526 14.35898925426427
